NORAD_CAT_ID,OBJECT_NAME,OBJECT_TYPE,EPOCH,MEAN_MOTION,ECCENTRICITY,INCLINATION,RA_OF_ASC_NODE,ARG_OF_PERICENTER,MEAN_ANOMALY,BSTAR,MEAN_MOTION_DOT,MEAN_MOTION_DDOT,TLE_LINE0,TLE_LINE1,TLE_LINE2,SEMIMAJOR_AXIS,PERIOD,APOGEE,PERIGEE,DECAYED
52602.0,STARLINK-4012,PAYLOAD,2023-06-14 04:00:04,15.08842358,0.000121,53.216,86.1521,87.2293,272.8837,0.00011272,1.507e-05,0.0,0 STARLINK-4012,1 52602U 22052E   23165.16672442  .00001507  00000-0  11272-3 0  9994,2 52602  53.2160  86.1521 0001210  87.2293 272.8837 15.08842358 60335,6917.873,95.437,540.575,538.901,0.0
52602.0,STARLINK-4012,PAYLOAD,2023-06-14 18:18:34,15.08820697,0.0001264,53.2159,83.4758,92.6422,267.4715,0.00025106,3.708e-05,0.0,0 STARLINK-4012,1 52602U 22052E   23165.76289398  .00003708  00000-0  25106-3 0  9990,2 52602  53.2159  83.4758 0001264  92.6422 267.4715 15.08820697 60425,6917.939,95.439,540.679,538.93,0.0
52602.0,STARLINK-4012,PAYLOAD,2023-06-15 02:15:29,15.08839811,0.0001227,53.2176,81.9914,83.206,276.9072,4.8811e-05,4.89e-06,0.0,0 STARLINK-4012,1 52602U 22052E   23166.09408875  .00000489  00000-0  48811-4 0  9992,2 52602  53.2176  81.9914 0001227  83.2060 276.9072 15.08839811 60478,6917.881,95.438,540.595,538.897,0.0
52602.0,STARLINK-4012,PAYLOAD,2023-06-15 03:50:52,15.08840746,0.000116,53.2164,81.6939,87.8198,272.2927,2.4002e-05,9.4e-07,0.0,0 STARLINK-4012,1 52602U 22052E   23166.16032883  .00000094  00000-0  24002-4 0  9990,2 52602  53.2164  81.6939 0001160  87.8198 272.2927 15.08840746 60913,6917.878,95.438,540.546,538.941,0.0
52602.0,STARLINK-4012,PAYLOAD,2023-06-16 03:41:38,15.08848137,0.0001203,53.2159,77.2313,94.7464,265.3666,4.7861e-05,4.74e-06,0.0,0 STARLINK-4012,1 52602U 22052E   23167.15392101  .00000474  00000-0  47861-4 0  9992,2 52602  53.2159  77.2313 0001203  94.7464 265.3666 15.08848137 60639,6917.856,95.437,540.553,538.888,0.0
52602.0,STARLINK-4012,PAYLOAD,2023-06-17 03:32:25,15.08850609,0.0001225,53.2167,72.7701,93.8114,266.3019,8.3314e-05,1.039e-05,0.0,0 STARLINK-4012,1 52602U 22052E   23168.14751455  .00001039  00000-0  83314-4 0  9994,2 52602  53.2167  72.7701 0001225  93.8114 266.3019 15.08850609 61210,6917.848,95.437,540.56,538.866,0.0
52602.0,STARLINK-4012,PAYLOAD,2023-06-17 17:50:55,15.08831419,9.09e-05,53.2166,70.0958,82.9574,277.1521,-0.00019114,-3.328e-05,0.0,0 STARLINK-4012,1 52602U 22052E   23168.74369786 -.00003328  00000-0 -19114-3 0  9993,2 52602  53.2166  70.0958 0000909  82.9574 277.1521 15.08831419 60878,6917.907,95.438,540.4,539.143,0.0
52602.0,STARLINK-4012,PAYLOAD,2023-06-18 09:44:46,15.0883331,0.000118,53.217,67.1216,100.1137,259.9988,-6.046e-05,-1.25e-05,0.0,0 STARLINK-4012,1 52602U 22052E   23169.40609599 -.00001250  00000-0 -60460-4 0  9999,2 52602  53.2170  67.1216 0001180 100.1137 259.9988 15.08833310 61404,6917.901,95.438,540.582,538.95,0.0
52602.0,STARLINK-4012,PAYLOAD,2023-06-18 17:41:42,15.0883893,0.0001029,53.2168,65.6342,90.7581,269.3529,-6.2074e-05,-1.275e-05,0.0,0 STARLINK-4012,1 52602U 22052E   23169.73729465 -.00001275  00000-0 -62074-4 0  9990,2 52602  53.2168  65.6342 0001029  90.7581 269.3529 15.08838930 61020,6917.884,95.438,540.461,539.037,0.0
52602.0,STARLINK-4012,PAYLOAD,2023-06-19 03:14:00,15.08848197,0.0001034,53.2167,63.8498,89.3011,270.81,2.2718e-05,7.4e-07,0.0,0 STARLINK-4012,1 52602U 22052E   23170.13472560  .00000074  00000-0  22718-4 0  9992,2 52602  53.2167  63.8498 0001034  89.3011 270.8100 15.08848197 61083,6917.855,95.437,540.436,539.005,0.0
52602.0,STARLINK-4012,PAYLOAD,2023-06-19 09:35:33,15.08844486,0.0001046,53.2166,62.6607,90.6867,269.4245,9.4642e-06,-1.37e-06,0.0,0 STARLINK-4012,1 52602U 22052E   23170.39968802 -.00000137  00000-0  94642-5 0  9996,2 52602  53.2166  62.6607 0001046  90.6867 269.4245 15.08844486 61551,6917.867,95.437,540.455,539.008,0.0
52602.0,STARLINK-4012,PAYLOAD,2023-06-20 01:29:25,15.08829716,0.0001091,53.2172,59.6871,93.5558,266.5559,0.00014874,2.08e-05,0.0,0 STARLINK-4012,1 52602U 22052E   23171.06209805  .00002080  00000-0  14874-3 0  9997,2 52602  53.2172  59.6871 0001091  93.5558 266.5559 15.08829716 61225,6917.912,95.438,540.532,539.022,0.0
52602.0,STARLINK-4012,PAYLOAD,2023-06-20 09:26:20,15.08836537,0.000112,53.2176,58.2003,90.47,269.6421,0.00013894,1.924e-05,0.0,0 STARLINK-4012,1 52602U 22052E   23171.39329502  .00001924  00000-0  13894-3 0  9997,2 52602  53.2176  58.2003 0001120  90.4700 269.6421 15.08836537 61703,6917.891,95.438,540.531,538.981,0.0
52602.0,STARLINK-4012,PAYLOAD,2023-06-20 20:34:02,15.08840304,0.0001186,53.2185,56.1207,95.8529,264.2598,4.4102e-05,4.14e-06,0.0,0 STARLINK-4012,1 52602U 22052E   23171.85697666  .00000414  00000-0  44102-4 0  9997,2 52602  53.2185  56.1207 0001186  95.8529 264.2598 15.08840304 61776,6917.879,95.438,540.565,538.924,0.0
52602.0,STARLINK-4012,PAYLOAD,2023-06-20 23:44:48,15.08846843,0.0001146,53.2181,55.5258,93.4492,266.6631,3.4059e-05,2.54e-06,0.0,0 STARLINK-4012,1 52602U 22052E   23171.98945288  .00000254  00000-0  34059-4 0  9999,2 52602  53.2181  55.5258 0001146  93.4492 266.6631 15.08846843 61363,6917.859,95.437,540.517,538.932,0.0
52602.0,STARLINK-4012,PAYLOAD,2023-06-21 20:24:50,15.08835227,0.00012,53.2182,51.6598,93.4944,266.6185,2.2792e-05,7.5e-07,0.0,0 STARLINK-4012,1 52602U 22052E   23172.85058072  .00000075  00000-0  22792-4 0  9994,2 52602  53.2182  51.6598 0001200  93.4944 266.6185 15.08835227 61921,6917.895,95.438,540.59,538.93,0.0
52602.0,STARLINK-4012,PAYLOAD,2023-06-22 01:10:59,15.08843527,0.0001217,53.2179,50.7673,80.1184,279.9945,2.5433e-05,1.17e-06,0.0,0 STARLINK-4012,1 52602U 22052E   23173.04929639  .00000117  00000-0  25433-4 0  9994,2 52602  53.2179  50.7673 0001217  80.1184 279.9945 15.08843527 61527,6917.87,95.437,540.577,538.893,0.0
52602.0,STARLINK-4012,PAYLOAD,2023-06-22 15:29:27,15.08834742,0.0001198,53.2174,48.0907,77.738,282.3746,7.3367e-05,8.8e-06,0.0,0 STARLINK-4012,1 52602U 22052E   23173.64546145  .00000880  00000-0  73367-4 0  9993,2 52602  53.2174  48.0907 0001198  77.7380 282.3746 15.08834742 61616,6917.896,95.438,540.59,538.933,0.0
52602.0,STARLINK-4012,PAYLOAD,2023-06-23 01:01:45,15.08847554,0.000117,53.2168,46.3051,82.2917,277.8208,6.9914e-05,8.25e-06,0.0,0 STARLINK-4012,1 52602U 22052E   23174.04289262  .00000825  00000-0  69914-4 0  9994,2 52602  53.2168  46.3051 0001170  82.2917 277.8208 15.08847554 61670,6917.857,95.437,540.532,538.913,0.0
52602.0,STARLINK-4012,PAYLOAD,2023-06-25 00:43:20,15.08843682,0.0001346,53.2177,37.3833,95.9959,264.1186,2.1068e-05,4.7e-07,0.0,0 STARLINK-4012,1 52602U 22052E   23176.03009625  .00000047  00000-0  21068-4 0  9992,2 52602  53.2177  37.3833 0001346  95.9959 264.1186 15.08843682 61975,6917.869,95.437,540.665,538.803,0.0
52602.0,STARLINK-4012,PAYLOAD,2023-06-26 21:14:08,15.08839751,0.000114,53.2167,29.058,89.4739,270.6384,7.4334e-05,8.95e-06,0.0,0 STARLINK-4012,1 52602U 22052E   23177.88482059  .00000895  00000-0  74334-4 0  9997,2 52602  53.2167  29.0580 0001140  89.4739 270.6384 15.08839751 62253,6917.881,95.438,540.535,538.958,0.0
52602.0,STARLINK-4012,PAYLOAD,2023-06-27 21:04:56,15.08834407,0.0001196,53.2184,24.6021,92.6174,267.4955,6.3475e-05,7.22e-06,0.0,0 STARLINK-4012,1 52602U 22052E   23178.87842779  .00000722  00000-0  63475-4 0  9999,2 52602  53.2184  24.6021 0001196  92.6174 267.4955 15.08834407 62401,6917.897,95.438,540.59,538.935,0.0
52602.0,STARLINK-4012,PAYLOAD,2023-06-28 00:15:42,15.08840333,0.0001186,53.2177,24.0055,86.8819,273.2308,0.00011013,1.465e-05,0.0,0 STARLINK-4012,1 52602U 22052E   23179.01090341  .00001465  00000-0  11013-3 0  9991,2 52602  53.2177  24.0055 0001186  86.8819 273.2308 15.08840333 62428,6917.879,95.438,540.565,538.924,0.0
52602.0,STARLINK-4012,PAYLOAD,2023-06-28 17:44:57,15.08818436,0.0001517,53.2179,20.7346,108.2127,251.903,0.00032667,4.912e-05,0.0,0 STARLINK-4012,1 52602U 22052E   23179.73955048  .00004912  00000-0  32667-3 0  9992,2 52602  53.2179  20.7346 0001517 108.2127 251.9030 15.08818436 62531,6917.946,95.439,540.861,538.762,0.0
52602.0,STARLINK-4012,PAYLOAD,2023-06-28 20:55:42,15.08841769,0.0001234,53.2178,20.1394,92.7295,267.3838,8.3903e-05,1.048e-05,0.0,0 STARLINK-4012,1 52602U 22052E   23179.87202490  .00001048  00000-0  83903-4 0  9990,2 52602  53.2178  20.1394 0001234  92.7295 267.3838 15.08841769 62550,6917.875,95.437,540.594,538.886,0.0
52602.0,STARLINK-4012,PAYLOAD,2023-06-29 19:11:07,15.08832939,0.0001093,53.217,15.9761,91.6421,268.4696,1.1692e-05,-1.02e-06,0.0,0 STARLINK-4012,1 52602U 22052E   23180.79939313 -.00000102  00000-0  11692-4 0  9991,2 52602  53.2170  15.9761 0001093  91.6421 268.4696 15.08832939 62692,6917.902,95.438,540.523,539.011,0.0
52602.0,STARLINK-4012,PAYLOAD,2023-06-30 22:12:40,15.08848106,0.0001156,53.2176,10.9204,73.5088,286.6031,0.00010795,1.431e-05,0.0,0 STARLINK-4012,1 52602U 22052E   23181.92546392  .00001431  00000-0  10795-3 0  9995,2 52602  53.2176  10.9204 0001156  73.5088 286.6031 15.08848106 62860,6917.856,95.437,540.52,538.921,0.0
52602.0,STARLINK-4012,PAYLOAD,2023-07-02 15:32:41,15.08843037,0.0001057,53.2165,3.1881,82.6988,277.4124,4.3216e-05,4e-06,0.0,0 STARLINK-4012,1 52602U 22052E   23183.64770729  .00000400  00000-0  43216-4 0  9999,2 52602  53.2165   3.1881 0001057  82.6988 277.4124 15.08843037 63122,6917.871,95.437,540.467,539.005,0.0
52602.0,STARLINK-4012,PAYLOAD,2023-07-02 21:54:14,15.08849334,0.0001034,53.2181,1.9994,85.7564,274.3547,9.2192e-05,1.18e-05,0.0,0 STARLINK-4012,1 52602U 22052E   23183.91266310  .00001180  00000-0  92192-4 0  9998,2 52602  53.2181   1.9994 0001034  85.7564 274.3547 15.08849334 63165,6917.852,95.437,540.432,539.002,0.0
52602.0,STARLINK-4012,PAYLOAD,2023-07-03 18:34:15,15.08842794,0.0001001,53.2188,358.1347,84.5047,275.6059,4.1613e-05,3.75e-06,0.0,0 STARLINK-4012,1 52602U 22052E   23184.77378671  .00000375  00000-0  41613-4 0  9994,2 52602  53.2188 358.1347 0001001  84.5047 275.6059 15.08842794 63297,6917.872,95.437,540.429,539.044,0.0
